#aV2008  1 30  0  0   .00000000      96 DD+AD WGS84 FIT  NGA
## 1464 259200.00000000   900.00000000 54495  .0000000000000
+   31     1  2  3  4  5  6  8  9 10 11 12 13 14 15 16 17 18
+         19 20 21 22 23 24 25 26 27 28 29 30 31 32  0  0  0
+          0  0  0  0  0  0  0  0  0  0  0  0  0  0  0  0  0
+          0  0  0  0  0  0  0  0  0  0  0  0  0  0  0  0  0
+          0  0  0  0  0  0  0  0  0  0  0  0  0  0  0  0  0
++         0  0  0  0  0  0  0  0  0  0  0  0  0  0  0  0  0
++         0  0  0  0  0  0  0  0  0  0  0  0  0  0  0  0  0
++         0  0  0  0  0  0  0  0  0  0  0  0  0  0  0  0  0
++         0  0  0  0  0  0  0  0  0  0  0  0  0  0  0  0  0
++         0  0  0  0  0  0  0  0  0  0  0  0  0  0  0  0  0
%c cc cc ccc ccc cccc cccc cccc cccc ccccc ccccc ccccc ccccc
%c cc cc ccc ccc cccc cccc cccc cccc ccccc ccccc ccccc ccccc
%f  0.0000000  0.000000000  0.00000000000  0.000000000000000
%f  0.0000000  0.000000000  0.00000000000  0.000000000000000
%i    0    0    0    0      0      0      0      0         0
%i    0    0    0    0      0      0      0      0         0
/*      NGA, ST. LOUIS,MO.                                  
/*   EPHEMERIS COMPUTED FROM  3 DAYS OF DATA                
/* CCCCCCCCCCCCCCCCCCCCCCCCCCCCCCCCCCCCCCCCCCCCCCCCCCCCCCCCC
/* CCCCCCCCCCCCCCCCCCCCCCCCCCCCCCCCCCCCCCCCCCCCCCCCCCCCCCCCC
*  2008  1 30 11 30   .00000000                                                 
P  1  17999.066706  15043.772137 -12303.940969    182.426097                    
V  1   6616.017871  14545.070296  26911.045094       .025255                    
P  2 -16972.120526    764.187378 -20525.520005    170.352714                    
V  2  10409.748241 -23625.960661  -9896.519917       .030321                    
P  3  19826.437797   3938.217522  17149.769641    180.160309                    
V  3  12359.768999  18620.703115 -17954.257825       .053154                    
P  4 -11463.907421 -11267.275102 -21190.171294      -.498609                    
V  4  13044.998178 -23435.617021   5793.285426      -.061693                    
P  5 -11313.955776  15376.553249 -18671.505980    668.678916                    
V  5 -23288.584366   1652.975552  15834.821089       .158512                    
P  6   7434.307884  23328.507070 -10104.221385    130.417639                    
V  6 -10310.174528  -8773.413987 -27425.612714      -.171643                    
P  8  -4038.505896 -18133.182573  18703.463154   -139.019063                    
V  8  13152.469019 -20186.741489 -17103.850168      -.014948                    
P  9 -14338.756845  21220.809407   6063.891520    108.126822                    
V  9   1114.802117  -8880.850145  30793.334969       .017861                    
P 10 -26671.307530   1550.810294   1076.954199   -228.810585                    
V 10  -1577.000153  -2336.361712 -31605.038740      -.141165                    
P 11  11293.502112 -23211.719225   5353.951781     27.043016                    
V 11   2888.356738   8270.130358  29297.051178       .000078                    
P 12 -17116.804737  12158.956264 -16129.494517   -355.422124                    
V 12 -20750.353052   -783.375492  21381.238444      -.008597                    
P 13  -4226.722270 -23083.446800 -12574.495086    237.260669                    
V 13   9210.599751  12827.582034 -26840.058555       .022106                    
P 14  15284.862596  21624.500462  -2516.998109   -301.606289                    
V 14    174.308122   3775.145433  32100.867271       .029861                    
P 15 -14055.849947   6378.038755  21641.673791    -73.640666                    
V 15 -15030.782271 -22942.404201  -3010.600631      -.020233                    
P 16  26411.362938   1278.502151  -3306.412382    132.539256                    
V 16  -4167.499848   2668.886272 -31371.247587       .004271                    
P 17 -15377.225142 -21681.239193  -1817.188132     43.428410                    
V 17   1041.541401  -3425.420917  31516.642810      -.006803                    
P 18   1820.772259  15484.033375  21684.684709   -208.331964                    
V 18 -27156.468506    490.476864   1600.651101       .029172                    
P 19  14247.101649  -5867.860252  21724.194202     18.809844                    
V 19  13299.189286  23946.820891  -2100.246264       .015159                    
P 20  14471.090068 -13699.286004 -17646.769648    121.563726                    
V 20  22318.466779    261.890269  18261.431395      -.007516                    
P 21  -2381.016453  23251.170243  12193.279323     72.677994                    
V 21 -10312.200075  12066.945148 -25945.346474      -.006996                    
P 22  16428.435610  12150.878240  17144.248727    207.775548                    
V 22 -21472.868025   2145.650723  19192.667668       .004836                    
P 23   6959.661126 -15185.883990 -20655.737572    330.287684                    
V 23  15030.557688  21375.263837 -10908.785169       .029258                    
P 24 -12676.689655  23508.655763    944.530234     66.557395                    
V 24  -2916.064399   -534.875304 -31373.608819       .030445                    
P 25   6056.461307 -25487.652018   5247.873507    505.734886                    
V 25   4567.174824  -4834.297528 -30768.649954       .043519                    
P 26 -15275.932480   1477.875628  21302.125788    169.744918                    
V 26 -14089.204640 -24158.042734  -7717.538307       .103914                    
P 27   1389.305054 -23931.424423  11910.318002    164.324455                    
V 27   7583.089127 -12136.349493 -26964.191895       .025787                    
P 28 -14066.194225 -12820.583331  19033.853615    -14.437090                    
V 28  23235.704888  -1788.552811  15940.819020      -.005424                    
P 29   1179.645239  21758.830864 -15090.607282    -68.696329                    
V 29 -12049.989553 -15290.391139 -22789.445527       .071705                    
P 30  -4607.941728  15732.120660 -21214.033956     61.895719                    
V 30 -26189.758314   1739.541151   7189.224658       .014996                    
P 31  12231.288061   8928.811023 -21603.872643     -7.314454                    
V 31 -12775.848469  24834.155478   3089.984248      -.014829                    
P 32  22408.429403   8594.220221  11642.986934    215.569812                    
V 32 -14188.584241   1723.515215  27258.487716       .098773                    
EOF
